QB50P1                  
1 40025U 14033R   26194.57500626  .00005023  00000+0  24591-3 0  9998
2 40025  98.0963 207.5784 0010293 129.5975 230.6167 15.18651217657037
DTUSAT-2                
1 40030U 14033W   26194.98405073  .00003600  00000+0  19481-3 0  9990
2 40030  98.0872 194.4201 0009266 135.3540 224.8439 15.15343677656740
QB50P2                  
1 40032U 14033Y   26194.97572463  .00003716  00000+0  20003-3 0  9999
2 40032  98.0758 193.5313 0009341  87.2304 272.9995 15.15497026656723
PERSEUS-M1              
1 40039U 14033AF  26194.79647293  .00001289  00000+0  12116-3 0  9999
2 40039  97.9652 139.3677 0010828 201.1513 158.9261 14.95712422654615
POLYITAN-1              
1 40042U 14033AJ  26195.06241196  .00011275  00000+0  34297-3 0  9996
2 40042  98.0935 223.8837 0007966  67.7667 292.4418 15.34193995657711
TIGRISAT                
1 40043U 14033AK  26194.66030179  .00000798  00000+0  97538-4 0  9995
2 40043  97.7861 344.0710 0048750 349.4137  10.6048 14.85246908649550
CANX-4                  
1 40055U 14034C   26195.17167411  .00000456  00000+0  65732-4 0  9998
2 40055  98.3085  71.4711 0011444 286.5619  73.4335 14.81310223648526
CANX-5                  
1 40056U 14034D   26195.10224440  .00000449  00000+0  64807-4 0  9992
2 40056  98.3087  71.4444 0011445 287.0041  72.9916 14.81327483639321
GONETS-M 10             
1 40063U 14036C   26195.19670193 -.00000062  00000+0 -52025-3 0  9992
2 40063  82.5127 290.8989 0022960  84.5094 275.8604 12.42945941545607
METEOR-M 2              
1 40069U 14037A   26195.17529799  .00000173  00000+0  98198-4 0  9995
2 40069  98.5123 169.9602 0005229 330.5526  29.5356 14.21469914623152
DX1                     
1 40071U 14037C   26195.15576991  .00000094  00000+0  16228-4 0  9998
2 40071  98.3874 158.4977 0006923 173.3102 186.8208 14.90058365650129
UKUBE-1                 
1 40074U 14037F   26195.00558833  .00004376  00000+0  24579-3 0  9994
2 40074  98.4242 201.1037 0003332  90.1501 270.0109 15.13940085652612
GAOFEN-2                
1 40118U 14049A   26195.20315741  .00000531  00000+0  75542-4 0  9993
2 40118  98.0104 259.3827 0008195 137.6135 222.5711 14.80927105643238
BRITE-PL2 (HEWELIUSZ)   
1 40119U 14049B   26194.75028223  .00000648  00000+0  65131-4 0  9991
2 40119  97.9120 306.9592 0014480  26.9813 333.2156 14.94684980645411
CBERS 4                 
1 40336U 14079A   26195.22090211 -.00000090  00000+0 -16756-4 0  9996
2 40336  98.3525 251.2023 0000815  54.0288 306.0973 14.35515376607838
SMAP                    
1 40376U 15003A   26195.15671299  .00000204  00000+0  48633-4 0  9995
2 40376  98.1283 201.8700 0001591  95.4307 264.7077 14.63388668611560
GONETS-M 11             
1 40552U 15020A   26195.21653309  .00000003  00000+0 -50954-4 0  9996
2 40552  82.4860  14.1457 0015422 305.5749  54.3892 12.42878485512092
GONETS-M 12             
1 40553U 15020B   26195.18973382 -.00000023  00000+0 -23476-3 0  9990
2 40553  82.4893  15.2932 0014271 289.5466  70.4072 12.42891940512086
GONETS-M 13             
1 40554U 15020C   26195.16366556 -.00000014  00000+0 -17098-3 0  9991
2 40554  82.4855  13.9167 0012800 273.4667  86.4949 12.42871780512058
DMC3-FM1                
1 40715U 15032A   26195.21165872 -.00000091  00000+0 -45625-5 0  9991
2 40715  97.6435  59.3231 0005084 341.7464  18.3568 14.85766286593924
DMC3-FM2                
1 40716U 15032B   26195.16625439  .00000079  00000+0  15015-4 0  9999
2 40716  97.6487  60.8714 0005689 345.4863  14.6188 14.85771680593910
DMC3-FM3                
1 40717U 15032C   26195.18977569  .00000787  00000+0  96455-4 0  9999
2 40717  97.6538  62.6642 0004854 348.3194  11.7908 14.85763229593929
CARBONITE 1 (CBNT-1)    
1 40718U 15032D   26195.22749619  .00000220  00000+0  32751-4 0  9999
2 40718  97.6513  12.1644 0013745 200.4638 159.6028 14.83663529593357
LILACSAT-2              
1 40908U 15049K   26195.16027172  .00012820  00000+0  21186-3 0  9992
2 40908  97.4624 233.0387 0008363 144.5879 215.5930 15.52336114599930
COSMOS 2507 (RODNIK-S *)
1 40920U 15050A   26195.11736113  .00000078  00000+0  49429-3 0  9997
2 40920  82.4914  62.9017 0009066 295.9908  64.0238 12.42927489490209
COSMOS 2508 (RODNIK-S *)
1 40921U 15050B   26195.15313019  .00000073  00000+0  45365-3 0  9998
2 40921  82.4866  61.3741 0013975 329.2658  30.7602 12.42915069490194
COSMOS 2509 (RODNIK-S *)
1 40922U 15050C   26195.17413068  .00000032  00000+0  15665-3 0  9991
2 40922  82.4874  61.4662 0014648 346.4723  13.5962 12.42884414490231
