OBJECT_NAME,OBJECT_ID,EPOCH,MEAN_MOTION,ECCENTRICITY,INCLINATION,RA_OF_ASC_NODE,ARG_OF_PERICENTER,MEAN_ANOMALY,EPHEMERIS_TYPE,CLASSIFICATION_TYPE,NORAD_CAT_ID,ELEMENT_SET_NO,REV_AT_EPOCH,BSTAR,MEAN_MOTION_DOT,MEAN_MOTION_DDOT
QB50P1,2014-033R,2026-07-13T13:48:00.540864,15.18651217,.0010293,98.0963,207.5784,129.5975,230.6167,0,U,40025,999,65703,.24591E-3,.5023E-4,0
DTUSAT-2,2014-033W,2026-07-13T23:37:01.983072,15.15343677,.0009266,98.0872,194.4201,135.3540,224.8439,0,U,40030,999,65674,.19481E-3,.36E-4,0
QB50P2,2014-033Y,2026-07-13T23:25:02.608032,15.15497026,.0009341,98.0758,193.5313,87.2304,272.9995,0,U,40032,999,65672,.20003E-3,.3716E-4,0
PERSEUS-M1,2014-033AF,2026-07-13T19:06:55.261152,14.95712422,.0010828,97.9652,139.3677,201.1513,158.9261,0,U,40039,999,65461,.12116E-3,.1289E-4,0
POLYITAN-1,2014-033AJ,2026-07-14T01:29:52.393344,15.34193995,.0007966,98.0935,223.8837,67.7667,292.4418,0,U,40042,999,65771,.34297E-3,.11275E-3,0
TIGRISAT,2014-033AK,2026-07-13T15:50:50.074656,14.85246908,.004875,97.7861,344.0710,349.4137,10.6048,0,U,40043,999,64955,.97538E-4,.798E-5,0
CANX-4,2014-034C,2026-07-14T04:07:12.643104,14.81310223,.0011444,98.3085,71.4711,286.5619,73.4335,0,U,40055,999,64852,.65732E-4,.456E-5,0
CANX-5,2014-034D,2026-07-14T02:27:13.916160,14.81327483,.0011445,98.3087,71.4444,287.0041,72.9916,0,U,40056,999,63932,.64807E-4,.449E-5,0
GONETS-M 10,2014-036C,2026-07-14T04:43:15.046752,12.42945941,.002296,82.5127,290.8989,84.5094,275.8604,0,U,40063,999,54560,-.52025E-3,-.62E-6,0
METEOR-M 2,2014-037A,2026-07-14T04:12:25.746336,14.21469914,.0005229,98.5123,169.9602,330.5526,29.5356,0,U,40069,999,62315,.98198E-4,.173E-5,0
DX1,2014-037C,2026-07-14T03:44:18.520224,14.90058365,.0006923,98.3874,158.4977,173.3102,186.8208,0,U,40071,999,65012,.16228E-4,.94E-6,0
UKUBE-1,2014-037F,2026-07-14T00:08:02.831712,15.13940085,.0003332,98.4242,201.1037,90.1501,270.0109,0,U,40074,999,65261,.24579E-3,.4376E-4,0
GAOFEN-2,2014-049A,2026-07-14T04:52:32.800224,14.80927105,.0008195,98.0104,259.3827,137.6135,222.5711,0,U,40118,999,64323,.75542E-4,.531E-5,0
BRITE-PL2 (HEWELIUSZ),2014-049B,2026-07-13T18:00:24.384672,14.94684980,.001448,97.9120,306.9592,26.9813,333.2156,0,U,40119,999,64541,.65131E-4,.648E-5,0
CBERS 4,2014-079A,2026-07-14T05:18:05.942304,14.35515376,.0000815,98.3525,251.2023,54.0288,306.0973,0,U,40336,999,60783,-.16756E-4,-.9E-6,0
SMAP,2015-003A,2026-07-14T03:45:40.002336,14.63388668,.0001591,98.1283,201.8700,95.4307,264.7077,0,U,40376,999,61156,.48633E-4,.204E-5,0
GONETS-M 11,2015-020A,2026-07-14T05:11:48.458976,12.42878485,.0015422,82.4860,14.1457,305.5749,54.3892,0,U,40552,999,51209,-.50954E-4,.3E-7,0
GONETS-M 12,2015-020B,2026-07-14T04:33:13.002048,12.42891940,.0014271,82.4893,15.2932,289.5466,70.4072,0,U,40553,999,51208,-.23476E-3,-.23E-6,0
GONETS-M 13,2015-020C,2026-07-14T03:55:40.704384,12.42871780,.00128,82.4855,13.9167,273.4667,86.4949,0,U,40554,999,51205,-.17098E-3,-.14E-6,0
DMC3-FM1,2015-032A,2026-07-14T05:04:47.313408,14.85766286,.0005084,97.6435,59.3231,341.7464,18.3568,0,U,40715,999,59392,-.45625E-5,-.91E-6,0
DMC3-FM2,2015-032B,2026-07-14T03:59:24.379296,14.85771680,.0005689,97.6487,60.8714,345.4863,14.6188,0,U,40716,999,59391,.15015E-4,.79E-6,0
DMC3-FM3,2015-032C,2026-07-14T04:33:16.619616,14.85763229,.0004854,97.6538,62.6642,348.3194,11.7908,0,U,40717,999,59392,.96455E-4,.787E-5,0
CARBONITE 1 (CBNT-1),2015-032D,2026-07-14T05:27:35.670816,14.83663529,.0013745,97.6513,12.1644,200.4638,159.6028,0,U,40718,999,59335,.32751E-4,.22E-5,0
LILACSAT-2,2015-049K,2026-07-14T03:50:47.476608,15.52336114,.0008363,97.4624,233.0387,144.5879,215.5930,0,U,40908,999,59993,.21186E-3,.1282E-3,0
COSMOS 2507 (RODNIK-S 13),2015-050A,2026-07-14T02:49:00.001632,12.42927489,.0009066,82.4914,62.9017,295.9908,64.0238,0,U,40920,999,49020,.49429E-3,.78E-6,0
COSMOS 2508 (RODNIK-S 14),2015-050B,2026-07-14T03:40:30.448416,12.42915069,.0013975,82.4866,61.3741,329.2658,30.7602,0,U,40921,999,49019,.45365E-3,.73E-6,0
COSMOS 2509 (RODNIK-S 15),2015-050C,2026-07-14T04:10:44.890752,12.42884414,.0014648,82.4874,61.4662,346.4723,13.5962,0,U,40922,999,49023,.15665E-3,.32E-6,0
